{
    "links": {
        "self": "http://www.neowsapp.com/rest/v1/neo/3277897?api_key=iIulBulltgU6a56xZRHN4H3l9WmuAYTsLGpBGhQ2"
    },
    "id": "3277897",
    "neo_reference_id": "3277897",
    "name": "(2005 JA45)",
    "designation": "2005 JA45",
    "nasa_jpl_url": "http://ssd.jpl.nasa.gov/sbdb.cgi?sstr=3277897",
    "absolute_magnitude_h": 24.6,
    "estimated_diameter": {
        "kilometers": {
            "estimated_diameter_min": 0.0319561887,
            "estimated_diameter_max": 0.0714562102
        },
        "meters": {
            "estimated_diameter_min": 31.9561886721,
            "estimated_diameter_max": 71.4562101727
        },
        "miles": {
            "estimated_diameter_min": 0.0198566489,
            "estimated_diameter_max": 0.0444008168
        },
        "feet": {
            "estimated_diameter_min": 104.8431420431,
            "estimated_diameter_max": 234.436392583
        }
    },
    "is_potentially_hazardous_asteroid": false,
    "close_approach_data": [
        {
            "close_approach_date": "2005-05-10",
            "close_approach_date_full": "2005-May-10 16:37",
            "epoch_date_close_approach": 1115743020000,
            "relative_velocity": {
                "kilometers_per_second": "15.2405102707",
                "kilometers_per_hour": "54865.836974641",
                "miles_per_hour": "34091.497424604"
            },
            "miss_distance": {
                "astronomical": "0.031505674",
                "lunar": "12.255707186",
                "kilometers": "4713181.72331438",
                "miles": "2928635.320243244"
            },
            "orbiting_body": "Earth"
        },
        {
            "close_approach_date": "2012-06-16",
            "close_approach_date_full": "2012-Jun-16 12:19",
            "epoch_date_close_approach": 1339849140000,
            "relative_velocity": {
                "kilometers_per_second": "7.0792075189",
                "kilometers_per_hour": "25485.1470680985",
                "miles_per_hour": "15835.4792990638"
            },
            "miss_distance": {
                "astronomical": "0.9118895386",
                "lunar": "354.7250305154",
                "kilometers": "136416732.649842782",
                "miles": "84765427.0435311116"
            },
            "orbiting_body": "Juptr"
        }
    ],
    "orbital_data": {
        "orbit_id": "6",
        "orbit_determination_date": "2017-04-06 09:11:00",
        "first_observation_date": "2005-05-09",
        "last_observation_date": "2005-05-10",
        "data_arc_in_days": 1,
        "observations_used": 38,
        "orbit_uncertainty": "8",
        "minimum_orbit_intersection": ".0296381",
        "jupiter_tisserand_invariant": "2.934",
        "epoch_osculation": "2453500.5",
        "eccentricity": ".6254168781452468",
        "semi_major_axis": "2.763709622855319",
        "inclination": "22.40732761812261",
        "ascending_node_longitude": "50.24427188521297",
        "orbital_period": "1678.17421113661",
        "perihelion_distance": "1.035238978429168",
        "perihelion_argument": "188.9698871614551",
        "aphelion_distance": "4.49218026728147",
        "perihelion_time": "2453508.410789192264",
        "mean_anomaly": "358.3029866087108",
        "mean_motion": ".2145188488840951",
        "equinox": "J2000",
        "orbit_class": {
            "orbit_class_type": "AMO",
            "orbit_class_description": "Near-Earth asteroid orbits similar to that of 1221 Amor",
            "orbit_class_range": "1.017 AU < q (perihelion) < 1.3 AU"
        }
    },
    "is_sentry_object": false
}